TWILIGHT AN             
1 67399U 26004AN  26040.42118673  .00012725  00000+0  62520-3 0  9994
2 67399  97.4565  41.3611 0009434  73.7825 286.4446 15.18148073  4376
CONNECTA IOT-13         
1 67400U 26004AP  26040.48214244  .00004714  00000+0  23420-3 0  9999
2 67400  97.4558  41.4315 0010945  75.0034 285.2411 15.18093686  4388
CONNECTA IOT-14         
1 67401U 26004AQ  26040.47936900  .00012643  00000+0  61401-3 0  9990
2 67401  97.4508  41.4133 0011145  70.6923 289.5515 15.18540359  4389
CONNECTA IOT-15         
1 67402U 26004AR  26040.51022035  .00005854  00000+0  30234-3 0  9997
2 67402  97.4563  41.3967 0004710  62.7189 297.4523 15.16669516  4372
SHIJIAN-29B (SJ-29B)    
1 67403U 25315C   26040.06515822 -.00000061  00000+0  00000+0 0  9993
2 67403   3.0729  98.4614 0002592 313.9681 183.2880  1.00272450   409
STARLINK-36484          
1 67404U 26005A   26040.35267270  .00026071  00000+0  62877-3 0  9996
2 67404  43.0014  40.5393 0001423 271.7184  88.3509 15.40722673  4339
STARLINK-36452          
1 67405U 26005B   26040.50002314 -.00249092  00000+0 -61245-2 0  9999
2 67405  43.0009  39.2389 0000948 300.6049 344.2595 15.40837272  5609
STARLINK-36409          
1 67406U 26005C   26040.50002314  .00088415  00000+0  21036-2 0  9992
2 67406  43.0009  39.4793 0001424 276.2173 269.2206 15.40638873  5653
STARLINK-36510          
1 67407U 26005D   26040.37771306  .00141824  00000+0  23763-2 0  9995
2 67407  43.0007  39.8557 0001035 262.1115  97.9627 15.50620168  4349
STARLINK-36509          
1 67408U 26005E   26040.50002314  .00084839  00000+0  20195-2 0  9995
2 67408  43.0009  39.3582 0001144 266.5983 328.5921 15.40643028  5651
STARLINK-36507          
1 67409U 26005F   26040.50002314 -.01973826  00000+0 -43432-1 0  9990
2 67409  43.0001  39.1522 0001008 268.9672  52.0314 15.46513653  5657
STARLINK-36508          
1 67410U 26005G   26040.41078072  .00030605  00000+0  73661-3 0  9991
2 67410  43.0017  40.1110 0001690 249.8302 110.2372 15.40714912  4347
