CCSDS_OMM_VERS = 2.0
CREATION_DATE  = 
ORIGINATOR     = 

OBJECT_NAME    = TWILIGHT AN
OBJECT_ID      = 2026-004AN
CENTER_NAME    = EARTH
REF_FRAME      = TEME
TIME_SYSTEM    = UTC
MEAN_ELEMENT_THEORY = SGP/SGP4

EPOCH          = 2026-02-09T10:06:30.533472
MEAN_MOTION    = 15.18148073
ECCENTRICITY   = .0009434
INCLINATION    = 97.4565
RA_OF_ASC_NODE = 41.3611
ARG_OF_PERICENTER = 73.7825
MEAN_ANOMALY   = 286.4446

EPHEMERIS_TYPE = 0
CLASSIFICATION_TYPE = U
NORAD_CAT_ID   = 67399
ELEMENT_SET_NO = 999
REV_AT_EPOCH   = 437
BSTAR          = .6252E-3
MEAN_MOTION_DOT = .12725E-3
MEAN_MOTION_DDOT = 0

CCSDS_OMM_VERS = 2.0
CREATION_DATE  = 
ORIGINATOR     = 

OBJECT_NAME    = CONNECTA IOT-13
OBJECT_ID      = 2026-004AP
CENTER_NAME    = EARTH
REF_FRAME      = TEME
TIME_SYSTEM    = UTC
MEAN_ELEMENT_THEORY = SGP/SGP4

EPOCH          = 2026-02-09T11:34:17.106816
MEAN_MOTION    = 15.18093686
ECCENTRICITY   = .0010945
INCLINATION    = 97.4558
RA_OF_ASC_NODE = 41.4315
ARG_OF_PERICENTER = 75.0034
MEAN_ANOMALY   = 285.2411

EPHEMERIS_TYPE = 0
CLASSIFICATION_TYPE = U
NORAD_CAT_ID   = 67400
ELEMENT_SET_NO = 999
REV_AT_EPOCH   = 438
BSTAR          = .2342E-3
MEAN_MOTION_DOT = .4714E-4
MEAN_MOTION_DDOT = 0

CCSDS_OMM_VERS = 2.0
CREATION_DATE  = 
ORIGINATOR     = 

OBJECT_NAME    = CONNECTA IOT-14
OBJECT_ID      = 2026-004AQ
CENTER_NAME    = EARTH
REF_FRAME      = TEME
TIME_SYSTEM    = UTC
MEAN_ELEMENT_THEORY = SGP/SGP4

EPOCH          = 2026-02-09T11:30:17.481600
MEAN_MOTION    = 15.18540359
ECCENTRICITY   = .0011145
INCLINATION    = 97.4508
RA_OF_ASC_NODE = 41.4133
ARG_OF_PERICENTER = 70.6923
MEAN_ANOMALY   = 289.5515

EPHEMERIS_TYPE = 0
CLASSIFICATION_TYPE = U
NORAD_CAT_ID   = 67401
ELEMENT_SET_NO = 999
REV_AT_EPOCH   = 438
BSTAR          = .61401E-3
MEAN_MOTION_DOT = .12643E-3
MEAN_MOTION_DDOT = 0

CCSDS_OMM_VERS = 2.0
CREATION_DATE  = 
ORIGINATOR     = 

OBJECT_NAME    = CONNECTA IOT-15
OBJECT_ID      = 2026-004AR
CENTER_NAME    = EARTH
REF_FRAME      = TEME
TIME_SYSTEM    = UTC
MEAN_ELEMENT_THEORY = SGP/SGP4

EPOCH          = 2026-02-09T12:14:43.038240
MEAN_MOTION    = 15.16669516
ECCENTRICITY   = .000471
INCLINATION    = 97.4563
RA_OF_ASC_NODE = 41.3967
ARG_OF_PERICENTER = 62.7189
MEAN_ANOMALY   = 297.4523

EPHEMERIS_TYPE = 0
CLASSIFICATION_TYPE = U
NORAD_CAT_ID   = 67402
ELEMENT_SET_NO = 999
REV_AT_EPOCH   = 437
BSTAR          = .30234E-3
MEAN_MOTION_DOT = .5854E-4
MEAN_MOTION_DDOT = 0

CCSDS_OMM_VERS = 2.0
CREATION_DATE  = 
ORIGINATOR     = 

OBJECT_NAME    = SHIJIAN-29B (SJ-29B)
OBJECT_ID      = 2025-315C
CENTER_NAME    = EARTH
REF_FRAME      = TEME
TIME_SYSTEM    = UTC
MEAN_ELEMENT_THEORY = SGP/SGP4

EPOCH          = 2026-02-09T01:33:49.670208
MEAN_MOTION    = 1.00272450
ECCENTRICITY   = .00025927
INCLINATION    = 3.0729
RA_OF_ASC_NODE = 98.4614
ARG_OF_PERICENTER = 313.9681
MEAN_ANOMALY   = 183.2880

EPHEMERIS_TYPE = 0
CLASSIFICATION_TYPE = U
NORAD_CAT_ID   = 67403
ELEMENT_SET_NO = 999
REV_AT_EPOCH   = 40
BSTAR          = 0
MEAN_MOTION_DOT = -.61E-6
MEAN_MOTION_DDOT = 0

CCSDS_OMM_VERS = 2.0
CREATION_DATE  = 
ORIGINATOR     = 

OBJECT_NAME    = STARLINK-36484
OBJECT_ID      = 2026-005A
CENTER_NAME    = EARTH
REF_FRAME      = TEME
TIME_SYSTEM    = UTC
MEAN_ELEMENT_THEORY = SGP/SGP4

EPOCH          = 2026-02-09T08:27:50.921280
MEAN_MOTION    = 15.40722673
ECCENTRICITY   = .0001423
INCLINATION    = 43.0014
RA_OF_ASC_NODE = 40.5393
ARG_OF_PERICENTER = 271.7184
MEAN_ANOMALY   = 88.3509

EPHEMERIS_TYPE = 0
CLASSIFICATION_TYPE = U
NORAD_CAT_ID   = 67404
ELEMENT_SET_NO = 999
REV_AT_EPOCH   = 433
BSTAR          = .62877E-3
MEAN_MOTION_DOT = .26071E-3
MEAN_MOTION_DDOT = 0

CCSDS_OMM_VERS = 2.0
CREATION_DATE  = 
ORIGINATOR     = 

OBJECT_NAME    = STARLINK-36452
OBJECT_ID      = 2026-005B
CENTER_NAME    = EARTH
REF_FRAME      = TEME
TIME_SYSTEM    = UTC
MEAN_ELEMENT_THEORY = SGP/SGP4

EPOCH          = 2026-02-09T12:00:01.999296
MEAN_MOTION    = 15.40837272
ECCENTRICITY   = .0000948
INCLINATION    = 43.0009
RA_OF_ASC_NODE = 39.2389
ARG_OF_PERICENTER = 300.6049
MEAN_ANOMALY   = 344.2595

EPHEMERIS_TYPE = 0
CLASSIFICATION_TYPE = U
NORAD_CAT_ID   = 67405
ELEMENT_SET_NO = 999
REV_AT_EPOCH   = 560
BSTAR          = -.61245E-2
MEAN_MOTION_DOT = -.249092E-2
MEAN_MOTION_DDOT = 0

CCSDS_OMM_VERS = 2.0
CREATION_DATE  = 
ORIGINATOR     = 

OBJECT_NAME    = STARLINK-36409
OBJECT_ID      = 2026-005C
CENTER_NAME    = EARTH
REF_FRAME      = TEME
TIME_SYSTEM    = UTC
MEAN_ELEMENT_THEORY = SGP/SGP4

EPOCH          = 2026-02-09T12:00:01.999296
MEAN_MOTION    = 15.40638873
ECCENTRICITY   = .0001424
INCLINATION    = 43.0009
RA_OF_ASC_NODE = 39.4793
ARG_OF_PERICENTER = 276.2173
MEAN_ANOMALY   = 269.2206

EPHEMERIS_TYPE = 0
CLASSIFICATION_TYPE = U
NORAD_CAT_ID   = 67406
ELEMENT_SET_NO = 999
REV_AT_EPOCH   = 565
BSTAR          = .21036E-2
MEAN_MOTION_DOT = .88415E-3
MEAN_MOTION_DDOT = 0

CCSDS_OMM_VERS = 2.0
CREATION_DATE  = 
ORIGINATOR     = 

OBJECT_NAME    = STARLINK-36510
OBJECT_ID      = 2026-005D
CENTER_NAME    = EARTH
REF_FRAME      = TEME
TIME_SYSTEM    = UTC
MEAN_ELEMENT_THEORY = SGP/SGP4

EPOCH          = 2026-02-09T09:03:54.408384
MEAN_MOTION    = 15.50620168
ECCENTRICITY   = .0001035
INCLINATION    = 43.0007
RA_OF_ASC_NODE = 39.8557
ARG_OF_PERICENTER = 262.1115
MEAN_ANOMALY   = 97.9627

EPHEMERIS_TYPE = 0
CLASSIFICATION_TYPE = U
NORAD_CAT_ID   = 67407
ELEMENT_SET_NO = 999
REV_AT_EPOCH   = 434
BSTAR          = .23763E-2
MEAN_MOTION_DOT = .141824E-2
MEAN_MOTION_DDOT = 0

CCSDS_OMM_VERS = 2.0
CREATION_DATE  = 
ORIGINATOR     = 

OBJECT_NAME    = STARLINK-36509
OBJECT_ID      = 2026-005E
CENTER_NAME    = EARTH
REF_FRAME      = TEME
TIME_SYSTEM    = UTC
MEAN_ELEMENT_THEORY = SGP/SGP4

EPOCH          = 2026-02-09T12:00:01.999296
MEAN_MOTION    = 15.40643028
ECCENTRICITY   = .0001144
INCLINATION    = 43.0009
RA_OF_ASC_NODE = 39.3582
ARG_OF_PERICENTER = 266.5983
MEAN_ANOMALY   = 328.5921

EPHEMERIS_TYPE = 0
CLASSIFICATION_TYPE = U
NORAD_CAT_ID   = 67408
ELEMENT_SET_NO = 999
REV_AT_EPOCH   = 565
BSTAR          = .20195E-2
MEAN_MOTION_DOT = .84839E-3
MEAN_MOTION_DDOT = 0

CCSDS_OMM_VERS = 2.0
CREATION_DATE  = 
ORIGINATOR     = 

OBJECT_NAME    = STARLINK-36507
OBJECT_ID      = 2026-005F
CENTER_NAME    = EARTH
REF_FRAME      = TEME
TIME_SYSTEM    = UTC
MEAN_ELEMENT_THEORY = SGP/SGP4

EPOCH          = 2026-02-09T12:00:01.999296
MEAN_MOTION    = 15.46513653
ECCENTRICITY   = .0001008
INCLINATION    = 43.0001
RA_OF_ASC_NODE = 39.1522
ARG_OF_PERICENTER = 268.9672
MEAN_ANOMALY   = 52.0314

EPHEMERIS_TYPE = 0
CLASSIFICATION_TYPE = U
NORAD_CAT_ID   = 67409
ELEMENT_SET_NO = 999
REV_AT_EPOCH   = 565
BSTAR          = -.43432E-1
MEAN_MOTION_DOT = -.1973826E-1
MEAN_MOTION_DDOT = 0

CCSDS_OMM_VERS = 2.0
CREATION_DATE  = 
ORIGINATOR     = 

OBJECT_NAME    = STARLINK-36508
OBJECT_ID      = 2026-005G
CENTER_NAME    = EARTH
REF_FRAME      = TEME
TIME_SYSTEM    = UTC
MEAN_ELEMENT_THEORY = SGP/SGP4

EPOCH          = 2026-02-09T09:51:31.454208
MEAN_MOTION    = 15.40714912
ECCENTRICITY   = .000169
INCLINATION    = 43.0017
RA_OF_ASC_NODE = 40.1110
ARG_OF_PERICENTER = 249.8302
MEAN_ANOMALY   = 110.2372

EPHEMERIS_TYPE = 0
CLASSIFICATION_TYPE = U
NORAD_CAT_ID   = 67410
ELEMENT_SET_NO = 999
REV_AT_EPOCH   = 434
BSTAR          = .73661E-3
MEAN_MOTION_DOT = .30605E-3
MEAN_MOTION_DDOT = 0

